[{"OBJECT_NAME":"LUR-1","OBJECT_ID":"2024-149AQ","EPOCH":"2026-03-09T19:05:45.284064","MEAN_MOTION":15.28658648,"ECCENTRICITY":0.00027765,"INCLINATION":97.379,"RA_OF_ASC_NODE":148.4255,"ARG_OF_PERICENTER":309.1571,"MEAN_ANOMALY":50.9421,"EPHEMERIS_TYPE":0,"CLASSIFICATION_TYPE":"U","NORAD_CAT_ID":60506,"ELEMENT_SET_NO":999,"REV_AT_EPOCH":8678,"BSTAR":0.0003298462,"MEAN_MOTION_DOT":9.121e-5,"MEAN_MOTION_DDOT":0},{"OBJECT_NAME":"STARLINK-35706","OBJECT_ID":"2025-294X","EPOCH":"2026-03-09T18:49:29.277696","MEAN_MOTION":15.27570629,"ECCENTRICITY":9.413e-5,"INCLINATION":43.0009,"RA_OF_ASC_NODE":37.5365,"ARG_OF_PERICENTER":279.7056,"MEAN_ANOMALY":80.369,"EPHEMERIS_TYPE":0,"CLASSIFICATION_TYPE":"U","NORAD_CAT_ID":67051,"ELEMENT_SET_NO":999,"REV_AT_EPOCH":1481,"BSTAR":0.00083859293,"MEAN_MOTION_DOT":0.00022879,"MEAN_MOTION_DDOT":0}]
